{
  "type": "FeatureCollection",
  "features": [
    {
      "type": "Feature",
      "properties": {
        "norad_id": 32376,
        "name": "COSMO-SKYMED 2",
        "group": "resource",
        "lat": 2.033415647149858,
        "lon": 171.79599581327375,
        "alt_km": 625.115950230088,
        "timestamp": "2025-12-16T19:34:23.921568+00:00",
        "meta_object_name": "COSMO-SKYMED 2",
        "meta_object_id": "2007-059A",
        "meta_epoch": "2025-12-16T00:07:15.369600",
        "meta_mean_motion": 14.82146566,
        "meta_eccentricity": 0.00013839,
        "meta_inclination": 97.8804,
        "meta_ra_of_asc_node": 171.2798,
        "meta_arg_of_pericenter": 83.3146,
        "meta_mean_anomaly": 276.8224,
        "meta_ephemeris_type": 0,
        "meta_classification_type": "U",
        "meta_norad_cat_id": 32376,
        "meta_element_set_no": 999,
        "meta_rev_at_epoch": 97486,
        "meta_bstar": 7.6250527e-05,
        "meta_mean_motion_dot": 5.55e-06,
        "meta_mean_motion_ddot": 0,
        "tle_line1": "1 32376U 07059A   25350.00503900  .00000555  00000+0  76251-4 0  9993",
        "tle_line2": "2 32376  97.8804 171.2798 0001383  83.3146 276.8224 14.82146566974862"
      },
      "geometry": {
        "type": "Point",
        "coordinates": [
          171.79599581327375,
          2.033415647149858
        ]
      }
    },
    {
      "type": "Feature",
      "properties": {
        "norad_id": 32382,
        "name": "RADARSAT-2",
        "group": "resource",
        "lat": -80.86972937199994,
        "lon": 105.39462954574206,
        "alt_km": 799.9200404908215,
        "timestamp": "2025-12-16T19:34:23.921578+00:00",
        "meta_object_name": "RADARSAT-2",
        "meta_object_id": "2007-061A",
        "meta_epoch": "2025-12-15T23:51:24.212736",
        "meta_mean_motion": 14.29983294,
        "meta_eccentricity": 0.00011201,
        "meta_inclination": 98.5801,
        "meta_ra_of_asc_node": 354.5371,
        "meta_arg_of_pericenter": 85.7698,
        "meta_mean_anomaly": 274.3613,
        "meta_ephemeris_type": 0,
        "meta_classification_type": "U",
        "meta_norad_cat_id": 32382,
        "meta_element_set_no": 999,
        "meta_rev_at_epoch": 93977,
        "meta_bstar": 9.3487331e-05,
        "meta_mean_motion_dot": 1.97e-06,
        "meta_mean_motion_ddot": 0,
        "tle_line1": "1 32382U 07061A   25349.99403024  .00000197  00000+0  93487-4 0  9997",
        "tle_line2": "2 32382  98.5801 354.5371 0001120  85.7698 274.3613 14.29983294939778"
      },
      "geometry": {
        "type": "Point",
        "coordinates": [
          105.39462954574206,
          -80.86972937199994
        ]
      }
    },
    {
      "type": "Feature",
      "properties": {
        "norad_id": 32783,
        "name": "CARTOSAT-2A",
        "group": "resource",
        "lat": 80.78852243008036,
        "lon": -81.86883549486242,
        "alt_km": 627.1030191119662,
        "timestamp": "2025-12-16T19:34:23.921589+00:00",
        "meta_object_name": "CARTOSAT-2A",
        "meta_object_id": "2008-021A",
        "meta_epoch": "2025-12-15T23:39:39.932640",
        "meta_mean_motion": 14.78945532,
        "meta_eccentricity": 0.00116405,
        "meta_inclination": 97.7932,
        "meta_ra_of_asc_node": 39.7081,
        "meta_arg_of_pericenter": 354.2768,
        "meta_mean_anomaly": 5.8309,
        "meta_ephemeris_type": 0,
        "meta_classification_type": "U",
        "meta_norad_cat_id": 32783,
        "meta_element_set_no": 999,
        "meta_rev_at_epoch": 95172,
        "meta_bstar": 0.00016090633,
        "meta_mean_motion_dot": 1.138e-05,
        "meta_mean_motion_ddot": 0,
        "tle_line1": "1 32783U 08021A   25349.98587885  .00001138  00000+0  16091-3 0  9997",
        "tle_line2": "2 32783  97.7932  39.7081 0011640 354.2768   5.8309 14.78945532951724"
      },
      "geometry": {
        "type": "Point",
        "coordinates": [
          -81.86883549486242,
          80.78852243008036
        ]
      }
    },
    {
      "type": "Feature",
      "properties": {
        "norad_id": 33320,
        "name": "HUANJING 1A (HJ-1A)",
        "group": "resource",
        "lat": 25.136044812170454,
        "lon": -24.673446056323044,
        "alt_km": 603.94845962417,
        "timestamp": "2025-12-16T19:34:23.921599+00:00",
        "meta_object_name": "HUANJING 1A (HJ-1A)",
        "meta_object_id": "2008-041A",
        "meta_epoch": "2025-12-16T00:01:59.060928",
        "meta_mean_motion": 14.83407664,
        "meta_eccentricity": 0.00199387,
        "meta_inclination": 97.6541,
        "meta_ra_of_asc_node": 338.164,
        "meta_arg_of_pericenter": 24.1736,
        "meta_mean_anomaly": 336.041,
        "meta_ephemeris_type": 0,
        "meta_classification_type": "U",
        "meta_norad_cat_id": 33320,
        "meta_element_set_no": 999,
        "meta_rev_at_epoch": 93124,
        "meta_bstar": 0.00022448809,
        "meta_mean_motion_dot": 1.797e-05,
        "meta_mean_motion_ddot": 0,
        "tle_line1": "1 33320U 08041A   25350.00137802  .00001797  00000+0  22449-3 0  9997",
        "tle_line2": "2 33320  97.6541 338.1640 0019938  24.1736 336.0410 14.83407664931242"
      },
      "geometry": {
        "type": "Point",
        "coordinates": [
          -24.673446056323044,
          25.136044812170454
        ]
      }
    },
    {
      "type": "Feature",
      "properties": {
        "norad_id": 33321,
        "name": "HUANJING 1B (HJ-1B)",
        "group": "resource",
        "lat": -57.443159756096,
        "lon": 150.49422069842572,
        "alt_km": 654.1369927492788,
        "timestamp": "2025-12-16T19:34:23.921628+00:00",
        "meta_object_name": "HUANJING 1B (HJ-1B)",
        "meta_object_id": "2008-041B",
        "meta_epoch": "2025-12-15T23:04:12.243648",
        "meta_mean_motion": 14.82832926,
        "meta_eccentricity": 0.00381785,
        "meta_inclination": 97.6401,
        "meta_ra_of_asc_node": 341.8142,
        "meta_arg_of_pericenter": 65.5438,
        "meta_mean_anomaly": 294.9752,
        "meta_ephemeris_type": 0,
        "meta_classification_type": "U",
        "meta_norad_cat_id": 33321,
        "meta_element_set_no": 999,
        "meta_rev_at_epoch": 93125,
        "meta_bstar": 0.00018464245,
        "meta_mean_motion_dot": 1.462e-05,
        "meta_mean_motion_ddot": 0,
        "tle_line1": "1 33321U 08041B   25349.96125282  .00001462  00000+0  18464-3 0  9991",
        "tle_line2": "2 33321  97.6401 341.8142 0038178  65.5438 294.9752 14.82832926931255"
      },
      "geometry": {
        "type": "Point",
        "coordinates": [
          150.49422069842572,
          -57.443159756096
        ]
      }
    },
    {
      "type": "Feature",
      "properties": {
        "norad_id": 33331,
        "name": "GEOEYE 1",
        "group": "resource",
        "lat": -39.73727906527452,
        "lon": 68.86580497890269,
        "alt_km": 683.3060807972697,
        "timestamp": "2025-12-16T19:34:23.921640+00:00",
        "meta_object_name": "GEOEYE 1",
        "meta_object_id": "2008-042A",
        "meta_epoch": "2025-12-15T22:26:33.450432",
        "meta_mean_motion": 14.64704604,
        "meta_eccentricity": 0.00027433,
        "meta_inclination": 98.1251,
        "meta_ra_of_asc_node": 61.1758,
        "meta_arg_of_pericenter": 271.6646,
        "meta_mean_anomaly": 88.4243,
        "meta_ephemeris_type": 0,
        "meta_classification_type": "U",
        "meta_norad_cat_id": 33331,
        "meta_element_set_no": 999,
        "meta_rev_at_epoch": 92332,
        "meta_bstar": 0.00011233617,
        "meta_mean_motion_dot": 5.5e-06,
        "meta_mean_motion_ddot": 0,
        "tle_line1": "1 33331U 08042A   25349.93510938  .00000550  00000+0  11234-3 0  9991",
        "tle_line2": "2 33331  98.1251  61.1758 0002743 271.6646  88.4243 14.64704604923321"
      },
      "geometry": {
        "type": "Point",
        "coordinates": [
          68.86580497890269,
          -39.73727906527452
        ]
      }
    },
    {
      "type": "Feature",
      "properties": {
        "norad_id": 33396,
        "name": "THEOS",
        "group": "resource",
        "lat": -61.13438754288731,
        "lon": -147.1237412935731,
        "alt_km": 832.8607711207378,
        "timestamp": "2025-12-16T19:34:23.921652+00:00",
        "meta_object_name": "THEOS",
        "meta_object_id": "2008-049A",
        "meta_epoch": "2025-12-15T23:50:06.541728",
        "meta_mean_motion": 14.20097574,
        "meta_eccentricity": 0.00011547,
        "meta_inclination": 98.5869,
        "meta_ra_of_asc_node": 47.9867,
        "meta_arg_of_pericenter": 96.4492,
        "meta_mean_anomaly": 263.6817,
        "meta_ephemeris_type": 0,
        "meta_classification_type": "U",
        "meta_norad_cat_id": 33396,
        "meta_element_set_no": 999,
        "meta_rev_at_epoch": 89196,
        "meta_bstar": 6.8278479e-05,
        "meta_mean_motion_dot": 1.03e-06,
        "meta_mean_motion_ddot": 0,
        "tle_line1": "1 33396U 08049A   25349.99313127  .00000103  00000+0  68278-4 0  9991",
        "tle_line2": "2 33396  98.5869  47.9867 0001154  96.4492 263.6817 14.20097574891962"
      },
      "geometry": {
        "type": "Point",
        "coordinates": [
          -147.1237412935731,
          -61.13438754288731
        ]
      }
    }
  ]
}